{"type": "FeatureCollection", "features": [{"type": "Feature", "properties": {"district": "บ้านฉาง", "shapeName": "Ban Chang", "branches": 6, "workingage": 51264, "factories_avg": 91, "estates": 1, "vehicle_avg": 4, "gold_avg": 1, "market_avg": 1, "own": 6}, "geometry": {"type": "Polygon", "coordinates": [[[101.09415460400004, 12.804274004000035], [101.07626268000007, 12.812451882000062], [101.06766493200007, 12.81970099800003], [101.06452115400003, 12.819969166000021], [101.06107340200003, 12.817629495000062], [101.05409505600005, 12.81747082000004], [101.05001184200006, 12.815118239000071], [101.04454352700009, 12.81189114700004], [101.03643359800009, 12.81231867400004], [101.03199514200008, 12.808869078000043], [101.02958020600005, 12.802007007000043], [101.02675959700008, 12.801067739000075], [101.02584998400005, 12.801965164000023], [101.01726896300005, 12.79736904300006], [101.01315718900008, 12.78660037000003], [101.01433397700004, 12.774914833000025], [101.01158220000008, 12.771955860000048], [101.01197620000005, 12.767614373000072], [101.01289354800008, 12.761530274000052], [101.01431022600008, 12.761523173000057], [101.01531999400004, 12.758592006000072], [101.01190267000004, 12.755527681000046], [101.01185711500005, 12.753329676000021], [101.00854940300007, 12.751808527000037], [101.00764040100006, 12.74507784900004], [101.00361082800003, 12.73999010700004], [101.00372603600005, 12.73449480000005], [101.00132759900004, 12.73128145100003], [100.99538779800008, 12.730142558000068], [100.99105263000007, 12.726535582000054], [100.99124096200006, 12.722735932000035], [100.99293417100006, 12.721829229000036], [100.99479253300007, 12.714334664000035], [100.98968145900005, 12.708941408000044], [100.98993097600004, 12.705156346000024], [100.98783774100008, 12.703990751000049], [100.98756888500009, 12.70074504400003], [100.98599654100008, 12.700381953000033], [100.98783955200008, 12.698437583000043], [100.98448673900003, 12.693664764000061], [100.98851910800005, 12.686847156000056], [100.98758179200007, 12.684764739000059], [100.98950945800004, 12.68472760000003], [100.99024342900003, 12.679363705000071], [100.99256740100009, 12.676489261000029], [100.98908071400007, 12.669943576000037], [100.99284144600006, 12.664653171000054], [100.99170607300005, 12.663296267000021], [100.99310078500008, 12.661447223000039], [100.99189922200009, 12.660125486000027], [100.99322956900005, 12.65865834400006], [100.99225785100003, 12.656245697000031], [101.00809587800006, 12.660027554000067], [101.03803048600008, 12.663810954000041], [101.04482169000005, 12.665593404000049], [101.04558078000008, 12.667650022000032], [101.04871732400005, 12.669517398000039], [101.06114358000008, 12.67110769900006], [101.06545783700005, 12.674663644000077], [101.09202141500003, 12.675096841000027], [101.09742720300005, 12.678038595000032], [101.09522280300007, 12.680255385000066], [101.09587166200004, 12.69612855400004], [101.10635291400007, 12.710348327000077], [101.10504040300003, 12.717275751000045], [101.10196443400008, 12.72172527400005], [101.10425915100006, 12.731875630000047], [101.10012044200005, 12.747014845000024], [101.09107243200003, 12.76061579800006], [101.08662352700009, 12.760560631000033], [101.08573487100006, 12.762704416000076], [101.08937353500005, 12.763784724000061], [101.08981609400007, 12.770199968000043], [101.09460974700005, 12.772747980000076], [101.09137344900006, 12.778353012000025], [101.09361505000004, 12.779477029000077], [101.09170918900008, 12.781707848000053], [101.09323535500005, 12.784459706000064], [101.09303606500004, 12.788418289000049], [101.08904691100008, 12.791435198000045], [101.09335562300004, 12.792556593000029], [101.09474598800006, 12.794576575000065], [101.09546315300008, 12.80209250400003], [101.09415460400004, 12.804274004000035]]]}}, {"type": "Feature", "properties": {"district": "ปลวกแดง", "shapeName": "Pluak Daeng", "branches": 13, "workingage": 108163, "factories_avg": 148, "estates": 4, "vehicle_avg": 1, "gold_avg": 1, "market_avg": 0, "own": 13}, "geometry": {"type": "Polygon", "coordinates": [[[101.41593846100005, 12.96896208000004], [101.41726780400006, 12.972726984000076], [101.41346216500006, 12.97932275100004], [101.41451089200007, 12.984378244000027], [101.41618500300007, 12.985945600000036], [101.40763363400004, 12.991696782000076], [101.40649863700008, 12.995790262000071], [101.40765053200005, 12.997170566000023], [101.40554825800007, 13.001042010000049], [101.40565958400003, 13.007177134000074], [101.40416989500005, 13.011280939000073], [101.39864526200006, 13.021460250000075], [101.39409159900003, 13.024810699000057], [101.39175352900008, 13.029079926000065], [101.38527699400004, 13.033253342000023], [101.38023113100007, 13.039436934000037], [101.37212787000004, 13.043338413000072], [101.36911058800007, 13.042973528000061], [101.36438593600008, 13.045112021000023], [101.35848635800005, 13.056272895000063], [101.35096586900005, 13.05917630700003], [101.34797848300008, 13.065407752000056], [101.34408041800003, 13.068797027000073], [101.34248459400004, 13.073468146000039], [101.33986150400005, 13.075653939000063], [101.33440746400004, 13.075980500000071], [101.33153163100008, 13.081369971000072], [101.32669249500003, 13.083963729000061], [101.32471891300008, 13.08435793700005], [101.31652518100003, 13.080728973000078], [101.31241822800007, 13.076954493000073], [101.31078631600008, 13.073287923000066], [101.30581836200008, 13.07492067000004], [101.30111462900004, 13.072593167000036], [101.29884782800008, 13.06816827800003], [101.29248235700004, 13.065240635000066], [101.29302370200008, 13.05894162900006], [101.29192156400006, 13.056859661000033], [101.28957237900005, 13.058789167000043], [101.27789143400008, 13.05926921300005], [101.27020982100004, 13.062096033000046], [101.26425611100007, 13.06720256500006], [101.26355528100004, 13.071150885000066], [101.25977716400007, 13.074699357000043], [101.25279814400005, 13.075594144000036], [101.24181752700008, 13.066007611000032], [101.23893321400004, 13.065043827000068], [101.21953094300005, 13.077617260000068], [101.21221922300003, 13.078153307000036], [101.20981294600006, 13.075370279000026], [101.21043058000004, 13.08022100900007], [101.20806516400006, 13.08045676300003], [101.19495345300004, 13.08886934800006], [101.17966752800004, 13.084593700000028], [101.17612818800006, 13.080273048000038], [101.17316625000007, 13.07350213500007], [101.17511433700008, 13.066602064000051], [101.17370746800003, 13.065277068000057], [101.17446818600007, 13.062442321000049], [101.17162944600005, 13.058798684000067], [101.17450191000006, 13.056758842000022], [101.17745536800004, 13.056783283000073], [101.17742280700008, 13.054413768000074], [101.18709653900004, 13.057161699000062], [101.19420180000009, 13.054619763000062], [101.19515570300007, 13.044269230000054], [101.18821434700004, 13.03965011400004], [101.18390149300006, 13.026602998000044], [101.17395707600008, 13.027891986000043], [101.17450224400005, 13.019972788000075], [101.16672064500005, 13.025547441000072], [101.15875670800006, 13.026110767000034], [101.15380216300008, 13.030641605000028], [101.14349152000005, 13.021345454000027], [101.13477690600007, 13.016529442000035], [101.12989354400008, 13.025045796000029], [101.12519692700005, 13.027231135000022], [101.11976884700005, 13.032532745000026], [101.11563983900004, 13.033719425000072], [101.11081225700008, 13.03261165300006], [101.10472622500004, 13.027523400000064], [101.09464990400005, 13.033891119000032], [101.08942015800005, 13.018129503000068], [101.08606643300004, 13.012881], [101.08494417100007, 13.00515093200005], [101.08279373800008, 13.004156126000055], [101.09067722300006, 12.99781299600005], [101.09125150200003, 12.993522729000063], [101.09441721200005, 12.98917229500006], [101.09315652400005, 12.98071218900003], [101.09590327400008, 12.975348679000035], [101.10359611800004, 12.972884623000027], [101.09775494500008, 12.962700581000036], [101.09142017500005, 12.959661188000041], [101.09103684200005, 12.951689163000026], [101.08856130200007, 12.946873335000078], [101.09169099800005, 12.942205711000042], [101.08949185200004, 12.939978960000076], [101.08869177600008, 12.932072430000062], [101.08653913400008, 12.93099582700006], [101.08862762800004, 12.92462166000007], [101.08816921300007, 12.920569181000076], [101.09135190000006, 12.920471207000048], [101.09362433800004, 12.922731052000074], [101.09646123400006, 12.921326675000046], [101.09952220500008, 12.922410316000025], [101.10266936300008, 12.919721937000077], [101.10854590100007, 12.92333631300005], [101.10889376600005, 12.928875179000045], [101.11060454000005, 12.931616763000022], [101.12005047300005, 12.931949646000021], [101.12496969400007, 12.939956313000039], [101.12926338600005, 12.937132906000045], [101.12931399400009, 12.935228250000023], [101.14448564800006, 12.93348822200005], [101.14941283600007, 12.930407742000057], [101.15162230500005, 12.930779447000077], [101.15294162000004, 12.912993313000072], [101.15834143300003, 12.914619135000066], [101.16253841100007, 12.910995993000029], [101.17113233500004, 12.911144199000034], [101.17520178100006, 12.905470900000068], [101.17800615900006, 12.906437603000029], [101.17937875700005, 12.903898358000049], [101.18221192000004, 12.90542113400005], [101.18876605300005, 12.904507848000037], [101.18373348200004, 12.901216372000022], [101.18133121000005, 12.897799164000048], [101.18119657400007, 12.894987656000069], [101.19104630600003, 12.890085267000075], [101.18543523600005, 12.885951753000029], [101.17850498600006, 12.886350340000035], [101.18544784600005, 12.884042688000022], [101.19299333600009, 12.885993541000062], [101.19014548500007, 12.88069136200005], [101.18676950900004, 12.879399974000023], [101.18929524400005, 12.877978787000075], [101.19213848000004, 12.869642389000035], [101.19571680800004, 12.867765276000057], [101.19731298300007, 12.864271618000032], [101.19974360000003, 12.863483529000064], [101.20697524300004, 12.867261275000033], [101.21565497800003, 12.866890269000066], [101.21642576400006, 12.868324202000053], [101.22395117900004, 12.86375711200003], [101.23234042100006, 12.878996187000041], [101.23836035700003, 12.87669018400004], [101.24057733700005, 12.87274158200006], [101.24668999800008, 12.870469171000025], [101.24737088100005, 12.871435139000027], [101.25130448500005, 12.870838610000021], [101.25355049700005, 12.867726681000022], [101.26423670000008, 12.866506337000033], [101.27240876400003, 12.878634575000035], [101.27728161100003, 12.876450903000034], [101.28190094500007, 12.87676745400006], [101.28150792000008, 12.880763427000034], [101.28588816000007, 12.881690604000028], [101.28954058200009, 12.886867422000023], [101.28765212100006, 12.888285074000066], [101.28954063800006, 12.892152622000026], [101.29146854200008, 12.89118400700005], [101.29329918600007, 12.895561367000028], [101.29718090100005, 12.897274264000032], [101.29636134800006, 12.909877356000038], [101.29171260400005, 12.914146303000052], [101.29307374300004, 12.918235383000024], [101.29734863400006, 12.918665284000042], [101.29773372200003, 12.920679101000076], [101.30035991900007, 12.919614250000052], [101.30112904900005, 12.920940663000067], [101.30668669500005, 12.918721438000034], [101.30704042600007, 12.917035284000065], [101.31299075800007, 12.916025409000042], [101.31950115300003, 12.912473299000055], [101.31991010500008, 12.91458239700006], [101.32136857500006, 12.914980417000038], [101.32031038100007, 12.91789178700003], [101.32282372200007, 12.918897834000063], [101.32329849600006, 12.923610714000063], [101.32333571300006, 12.925294058000077], [101.32109320100005, 12.926901401000066], [101.32106969700004, 12.933028626000066], [101.32851763900004, 12.932963954000058], [101.33029640900008, 12.942766636000044], [101.33776553400008, 12.948026305000042], [101.34541810600007, 12.948400628000059], [101.34824437200007, 12.952264800000023], [101.35418671000008, 12.954431357000033], [101.35876163200004, 12.963933798000028], [101.36688518900007, 12.960049863000052], [101.36862581500009, 12.95684460800004], [101.37386321400004, 12.953154961000052], [101.37432148100004, 12.951311017000023], [101.37135883500008, 12.948664094000037], [101.37257202600006, 12.945067461000065], [101.37117741000009, 12.94142578100002], [101.37651699000008, 12.940788800000064], [101.37979908700004, 12.938393546000043], [101.37787568200008, 12.933030298000062], [101.37957856900005, 12.931368643000042], [101.38423353000007, 12.932466076000026], [101.38776257200004, 12.928596803000062], [101.39084659500008, 12.929001840000069], [101.39107437300004, 12.930973453000036], [101.39464816200007, 12.932462089000069], [101.39574789600005, 12.93734977300005], [101.40035057200004, 12.94265787300003], [101.40446631100008, 12.941209670000035], [101.40599025400007, 12.93945702600007], [101.40513887000009, 12.938375620000045], [101.40761589500005, 12.936672530000067], [101.40666135400005, 12.940442585000028], [101.41157048900004, 12.94226989200007], [101.41257748300006, 12.948610163000069], [101.41674307200009, 12.950786286000039], [101.41755541000003, 12.954329156000028], [101.42064676400008, 12.957469418000073], [101.41520426200003, 12.96372357000007], [101.41484845200006, 12.96886057000006], [101.41593846100005, 12.96896208000004]]]}}, {"type": "Feature", "properties": {"district": "เมืองระยอง", "shapeName": "Mueang Rayong", "branches": 17, "workingage": 472454, "factories_avg": 32, "estates": 1, "vehicle_avg": 26, "gold_avg": 1, "market_avg": 7, "own": 17}, "geometry": {"type": "MultiPolygon", "coordinates": [[[[101.44213828100004, 12.516181871000072], [101.44258302700007, 12.512762657000053], [101.44321133300008, 12.51569715200003], [101.44213828100004, 12.516181871000072]]], [[[101.45140379100008, 12.582689833000074], [101.44557759400004, 12.579860517000043], [101.44664954400008, 12.572728587000029], [101.44863947800008, 12.571791198000028], [101.44946905200004, 12.56931998500005], [101.44670572800004, 12.567530141000077], [101.44851617500007, 12.561406176000048], [101.44685138400007, 12.558819136000068], [101.44545368000007, 12.53504655200004], [101.44190147900008, 12.527544017000025], [101.44342809400007, 12.524747545000025], [101.44309010500007, 12.521677785000065], [101.44490415800004, 12.521770497000034], [101.44541599300004, 12.525089733000073], [101.44706250400009, 12.524622647000058], [101.44521164700006, 12.525990203000049], [101.44551950400006, 12.52996603500003], [101.44905947400008, 12.533855936000066], [101.44818729700006, 12.53896153100004], [101.45064466600007, 12.53967377500004], [101.44752246300004, 12.545918882000024], [101.45108775500006, 12.550023252000074], [101.45026352600007, 12.554111136000074], [101.45239160600005, 12.55527283500004], [101.45405352400007, 12.553986056000042], [101.45321403600008, 12.55645774900006], [101.45912994900004, 12.565085772000032], [101.46754113200006, 12.568003583000063], [101.46924444300004, 12.56639338900004], [101.47023051000008, 12.567666154000051], [101.46871796800008, 12.571919526000045], [101.46593724500008, 12.572695499000076], [101.46480293100007, 12.575238354000021], [101.46414934600006, 12.574118845000044], [101.45876610300007, 12.574343421000037], [101.45292492400006, 12.578636485000061], [101.45140379100008, 12.582689833000074]]], [[[101.50994875200007, 12.584993033000046], [101.50882825200006, 12.585998200000063], [101.50843907900008, 12.584369222000078], [101.51038831400007, 12.581593540000028], [101.51123681400009, 12.584915672000022], [101.50994875200007, 12.584993033000046]]], [[[101.50912553600006, 12.59531811200003], [101.50837031100008, 12.593918579000047], [101.50933446300007, 12.594449586000053], [101.51110514200008, 12.592454899000074], [101.50912553600006, 12.59531811200003]]], [[[101.17191590800007, 12.647865839000076], [101.17203723300008, 12.651125252000043], [101.16963785100006, 12.648382833000028], [101.17191590800007, 12.647865839000076]]], [[[101.09742720300005, 12.678038595000032], [101.10683670900005, 12.67927951300004], [101.11968429200004, 12.677247536000039], [101.12271850500008, 12.677904289000026], [101.13207886700008, 12.675397196000063], [101.13248951300005, 12.66532393600005], [101.14642483700004, 12.651422228000058], [101.14773535400008, 12.64690998900005], [101.14671366600004, 12.651526755000077], [101.14012325400006, 12.658405918000028], [101.14176981300005, 12.660249442000065], [101.13879974400004, 12.66320793400007], [101.13712205300004, 12.661678385000073], [101.13519203800007, 12.663553754000077], [101.13571023300005, 12.666220696000039], [101.13818656300003, 12.666305530000045], [101.13729279400007, 12.669735144000072], [101.13913760500009, 12.669748877000075], [101.13874456400004, 12.673841770000024], [101.15151885500006, 12.673528993000048], [101.15134116800004, 12.658134450000034], [101.15723385000007, 12.658102836000069], [101.15708246300005, 12.640079997000043], [101.16640106700004, 12.640004407000049], [101.16654408700003, 12.661557427000048], [101.15799160000006, 12.661626929000022], [101.15791785400006, 12.670169165000061], [101.16188508700009, 12.672043509000048], [101.17942415200008, 12.669221575000051], [101.19276447800007, 12.669769779000035], [101.23203718200006, 12.665827627000056], [101.26415191600006, 12.659264531000076], [101.27637417500006, 12.655378570000039], [101.28534684100003, 12.654624892000072], [101.31985118800009, 12.641405018000057], [101.36952637300004, 12.619418712000027], [101.41179253400009, 12.594871213000033], [101.41571893400004, 12.590317786000071], [101.41317849700005, 12.586385152000048], [101.41831972300008, 12.58307890900005], [101.42045606100004, 12.589512821000028], [101.42398725500004, 12.590366888000062], [101.42205815500006, 12.594239688000073], [101.42489299700009, 12.601033950000044], [101.42364339900007, 12.603342390000023], [101.42529857400007, 12.605977116000076], [101.42543813100008, 12.610493758000075], [101.42264545100005, 12.610945548000075], [101.42299860900005, 12.613595039000074], [101.42650842200004, 12.618993830000022], [101.42992904300007, 12.619905292000055], [101.42936192700006, 12.620918222000057], [101.43662702400007, 12.626724589000048], [101.44170722900009, 12.627310211000065], [101.45064558900003, 12.631219738000027], [101.46988924800007, 12.633328764000055], [101.48905251100007, 12.632451670000023], [101.49704191200004, 12.629842136000036], [101.49728772200007, 12.627547124000046], [101.49974921100005, 12.630929442000024], [101.51170888500008, 12.63136757500007], [101.51574186400006, 12.644676610000033], [101.51368323000008, 12.65495211800004], [101.51662902800007, 12.661343931000033], [101.51966698400008, 12.662242305000063], [101.52131246200008, 12.665160987000036], [101.51793163900004, 12.670774099000027], [101.51778093900003, 12.673630569000068], [101.51316766000008, 12.674486347000027], [101.51269996300005, 12.683486811000023], [101.51886864000005, 12.695190366000077], [101.51928862200003, 12.698595154000031], [101.51753362100004, 12.70227105500004], [101.51948963600006, 12.707855077000033], [101.51881191200005, 12.711282536000056], [101.52359778800007, 12.715575071000046], [101.52800004400007, 12.717223905000026], [101.53028340200007, 12.72029073300007], [101.52118344000007, 12.727194961000066], [101.52171892800004, 12.73982810800004], [101.52437624100008, 12.74270142100005], [101.52523333900007, 12.746494280000036], [101.52118504900005, 12.748863375000042], [101.52120352900005, 12.750730075000035], [101.52392009700009, 12.753231099000061], [101.52155677400003, 12.75704186300004], [101.52148228800007, 12.760517376000053], [101.52630735500009, 12.76669737900005], [101.52519989500007, 12.769803210000077], [101.52212474700008, 12.771115618000067], [101.52000774400005, 12.778262550000022], [101.52288942800004, 12.781307706000064], [101.52217740700007, 12.785954866000054], [101.52007126400008, 12.787789802000077], [101.51388668700008, 12.789305401000036], [101.50994557600006, 12.793822572000067], [101.50770071700003, 12.79930937000006], [101.50744677700004, 12.807892628000047], [101.50301340300007, 12.817651074000025], [101.50707878000009, 12.824039076000076], [101.50706188100008, 12.830169468000065], [101.50491543800007, 12.835358736000046], [101.50481734600004, 12.845584404000022], [101.50614350200004, 12.848644683000032], [101.50649580100009, 12.857331012000031], [101.50306050000006, 12.862271067000052], [101.50335240900006, 12.86656888500005], [101.50168366000008, 12.869056151000052], [101.49775754200004, 12.869801901000073], [101.49586706900004, 12.867676553000024], [101.48562893800005, 12.864859943000056], [101.48163779900005, 12.867564241000025], [101.47718048800004, 12.85996140800006], [101.47659415300006, 12.85375351600004], [101.47250882300006, 12.854702515000042], [101.46600439400004, 12.859162808000065], [101.46688776900004, 12.864625887000045], [101.46099827300009, 12.861749992000057], [101.45118029900004, 12.829565123000066], [101.44641476000004, 12.83010528400007], [101.44383729100008, 12.822918923000032], [101.42499092200006, 12.809084355000039], [101.42104974800009, 12.803774017000023], [101.41578035100008, 12.801409379000063], [101.41750067300006, 12.799127318000046], [101.41427359600004, 12.79314478300006], [101.41573553200004, 12.788584711000055], [101.41283209300008, 12.78124394300005], [101.41502774300005, 12.776663925000037], [101.41433050000006, 12.77482531100003], [101.40026150500006, 12.768414402000076], [101.39166341200007, 12.770050660000038], [101.38306151000006, 12.768862660000025], [101.38157257100005, 12.765466397000068], [101.37696106800007, 12.764652596000076], [101.37469645200008, 12.761634706000052], [101.37084908500003, 12.763392237000062], [101.36468838700006, 12.763284939000073], [101.36318714400005, 12.758891404000053], [101.35873215200007, 12.756335423000053], [101.35641398600006, 12.75104605200005], [101.34970712600006, 12.746818216000065], [101.35063428500007, 12.744247814000062], [101.34936990000006, 12.742083606000051], [101.34210892300007, 12.736039665000021], [101.33934607900005, 12.735920559000022], [101.33653205400009, 12.732255206000048], [101.33669765300004, 12.73014487000006], [101.33299062300006, 12.728819303000023], [101.32980678600006, 12.729526347000046], [101.32659304300006, 12.727688645000057], [101.32752463000008, 12.724209294000048], [101.32527639600005, 12.720462062000024], [101.32308456200008, 12.720648069000049], [101.31892392500004, 12.713555935000045], [101.32031915800007, 12.712785833000055], [101.31762290400007, 12.710937536000074], [101.31514749700005, 12.704026218000024], [101.31528532500005, 12.700366037000038], [101.31316357000009, 12.697214202000055], [101.31005780800007, 12.697848863000047], [101.30983974100008, 12.700998649000041], [101.30673696700006, 12.70083382100006], [101.30373507600007, 12.698117404000072], [101.30338569700007, 12.705915141000048], [101.30103478200004, 12.706025357000044], [101.29852891700006, 12.709249487000022], [101.29601996000008, 12.716373676000046], [101.29178690200007, 12.718809996000061], [101.28337673700008, 12.718131585000037], [101.27838145300007, 12.721316629000057], [101.28112004800005, 12.730420146000029], [101.27822306600007, 12.731017991000044], [101.27563257700007, 12.734573972000021], [101.27319311400004, 12.736022380000065], [101.26961169600008, 12.735051947000045], [101.26811877300008, 12.730893517000027], [101.26413690900006, 12.730211155000063], [101.26277280200009, 12.72836256100004], [101.26066159500004, 12.732060176000061], [101.25485861300007, 12.73429021000004], [101.24683331900007, 12.741965404000041], [101.24351618100007, 12.748333383000045], [101.23756228000008, 12.751239393000048], [101.23295417800006, 12.745826540000053], [101.22952917200007, 12.747588750000034], [101.22379646800005, 12.747628303000056], [101.22350561200005, 12.745807867000053], [101.22056893900003, 12.745153354000024], [101.21893832600006, 12.747314376000077], [101.21390467700007, 12.740273131000038], [101.20510050100006, 12.744190045000039], [101.19942897900006, 12.744660321000026], [101.18284532200005, 12.761942862000069], [101.17849052700006, 12.756585112000039], [101.17569692400008, 12.757896940000023], [101.16510409900008, 12.757696764000059], [101.16065657400009, 12.763717909000036], [101.16255452800004, 12.771791710000059], [101.15202715500004, 12.780998474000057], [101.14861524600008, 12.78143699900005], [101.14686186900008, 12.791839450000055], [101.14084182100004, 12.797129595000058], [101.14500358200007, 12.801261139000076], [101.14257774500004, 12.804580809000072], [101.13846234000005, 12.806704393000075], [101.13127043000009, 12.805676586000061], [101.13159623000007, 12.809031531000073], [101.12799541600003, 12.81046167900007], [101.12469887000003, 12.813935590000028], [101.12197410700009, 12.813859105000063], [101.11810567000003, 12.811394493000023], [101.11657794900003, 12.80867328200003], [101.10900486100007, 12.802752627000075], [101.10723386400008, 12.803409995000038], [101.10669508400008, 12.807290894000062], [101.09932435100006, 12.80353961700007], [101.09415460400004, 12.804274004000035], [101.09546315300008, 12.80209250400003], [101.09474598800006, 12.794576575000065], [101.09335562300004, 12.792556593000029], [101.08904691100008, 12.791435198000045], [101.09303606500004, 12.788418289000049], [101.09323535500005, 12.784459706000064], [101.09170918900008, 12.781707848000053], [101.09361505000004, 12.779477029000077], [101.09137344900006, 12.778353012000025], [101.09460974700005, 12.772747980000076], [101.08981609400007, 12.770199968000043], [101.08937353500005, 12.763784724000061], [101.08573487100006, 12.762704416000076], [101.08662352700009, 12.760560631000033], [101.09107243200003, 12.76061579800006], [101.10012044200005, 12.747014845000024], [101.10425915100006, 12.731875630000047], [101.10196443400008, 12.72172527400005], [101.10504040300003, 12.717275751000045], [101.10635291400007, 12.710348327000077], [101.09587166200004, 12.69612855400004], [101.09522280300007, 12.680255385000066], [101.09742720300005, 12.678038595000032]]]]}}, {"type": "Feature", "properties": {"district": "นิคมพัฒนา", "shapeName": "Nikhom Phatthana", "branches": 6, "workingage": 84745, "factories_avg": 79, "estates": 1, "vehicle_avg": 2, "gold_avg": 0, "market_avg": 0, "own": 6}, "geometry": {"type": "Polygon", "coordinates": [[[101.09415460400004, 12.804274004000035], [101.09932435100006, 12.80353961700007], [101.10669508400008, 12.807290894000062], [101.10723386400008, 12.803409995000038], [101.10900486100007, 12.802752627000075], [101.11657794900003, 12.80867328200003], [101.11810567000003, 12.811394493000023], [101.12197410700009, 12.813859105000063], [101.12469887000003, 12.813935590000028], [101.12799541600003, 12.81046167900007], [101.13159623000007, 12.809031531000073], [101.13127043000009, 12.805676586000061], [101.13846234000005, 12.806704393000075], [101.14257774500004, 12.804580809000072], [101.14500358200007, 12.801261139000076], [101.14084182100004, 12.797129595000058], [101.14686186900008, 12.791839450000055], [101.14861524600008, 12.78143699900005], [101.15202715500004, 12.780998474000057], [101.16255452800004, 12.771791710000059], [101.16065657400009, 12.763717909000036], [101.16510409900008, 12.757696764000059], [101.17569692400008, 12.757896940000023], [101.17849052700006, 12.756585112000039], [101.18284532200005, 12.761942862000069], [101.19942897900006, 12.744660321000026], [101.20510050100006, 12.744190045000039], [101.21390467700007, 12.740273131000038], [101.21893832600006, 12.747314376000077], [101.22056893900003, 12.745153354000024], [101.22350561200005, 12.745807867000053], [101.22379646800005, 12.747628303000056], [101.22952917200007, 12.747588750000034], [101.23295417800006, 12.745826540000053], [101.23756228000008, 12.751239393000048], [101.23917692300006, 12.754157779000025], [101.23494274200004, 12.757988540000042], [101.23580331600004, 12.761641674000032], [101.23377688400006, 12.764351029000068], [101.23555327200006, 12.77163076200003], [101.23188379200008, 12.772158324000031], [101.22815046800008, 12.77489862300007], [101.229685, 12.777298853000048], [101.22805392200007, 12.779416441000023], [101.22319329200008, 12.77972357300007], [101.22594808100007, 12.793268214000022], [101.22519602800008, 12.795843664000074], [101.22221438300005, 12.796783288000029], [101.22524386600008, 12.802917125000022], [101.22199242400006, 12.806868483000073], [101.22262537900008, 12.810823882000022], [101.21843430100006, 12.810393248000025], [101.21669855100004, 12.812066661000074], [101.20849431000005, 12.813457523000068], [101.21005182500005, 12.816507839000053], [101.20850583600009, 12.816998369000032], [101.21078974000005, 12.820120556000063], [101.20849675600005, 12.821655744000054], [101.21049067800004, 12.829141163000031], [101.22535187300008, 12.85624802500007], [101.22026747900009, 12.857372486000031], [101.22395117900004, 12.86375711200003], [101.21642576400006, 12.868324202000053], [101.21565497800003, 12.866890269000066], [101.20697524300004, 12.867261275000033], [101.19974360000003, 12.863483529000064], [101.19731298300007, 12.864271618000032], [101.19571680800004, 12.867765276000057], [101.19213848000004, 12.869642389000035], [101.18929524400005, 12.877978787000075], [101.18676950900004, 12.879399974000023], [101.19014548500007, 12.88069136200005], [101.19299333600009, 12.885993541000062], [101.18544784600005, 12.884042688000022], [101.17850498600006, 12.886350340000035], [101.18543523600005, 12.885951753000029], [101.19104630600003, 12.890085267000075], [101.18119657400007, 12.894987656000069], [101.18133121000005, 12.897799164000048], [101.18373348200004, 12.901216372000022], [101.18876605300005, 12.904507848000037], [101.18221192000004, 12.90542113400005], [101.17937875700005, 12.903898358000049], [101.17800615900006, 12.906437603000029], [101.17520178100006, 12.905470900000068], [101.17113233500004, 12.911144199000034], [101.16253841100007, 12.910995993000029], [101.15834143300003, 12.914619135000066], [101.15294162000004, 12.912993313000072], [101.15162230500005, 12.930779447000077], [101.14941283600007, 12.930407742000057], [101.14448564800006, 12.93348822200005], [101.12931399400009, 12.935228250000023], [101.12926338600005, 12.937132906000045], [101.12496969400007, 12.939956313000039], [101.12005047300005, 12.931949646000021], [101.11060454000005, 12.931616763000022], [101.10889376600005, 12.928875179000045], [101.10854590100007, 12.92333631300005], [101.10266936300008, 12.919721937000077], [101.09952220500008, 12.922410316000025], [101.09646123400006, 12.921326675000046], [101.09362433800004, 12.922731052000074], [101.09135190000006, 12.920471207000048], [101.08816921300007, 12.920569181000076], [101.08861399000006, 12.915351800000053], [101.08577651000007, 12.910970894000059], [101.07611147000006, 12.904253365000045], [101.08067783800004, 12.899878711000042], [101.07891834400004, 12.898311356000022], [101.07982768300008, 12.895497893000027], [101.07407396500008, 12.89223826400007], [101.07209601300008, 12.887732846000063], [101.07406236100007, 12.885280049000073], [101.07201617200008, 12.883418578000033], [101.07447194500008, 12.880139278000058], [101.06789486800005, 12.870323049000035], [101.06546721400008, 12.861892025000031], [101.06153621700008, 12.858093935000056], [101.06185525100005, 12.853782443000057], [101.06481843000006, 12.85237778100003], [101.06215139900007, 12.841092351000043], [101.06380456500005, 12.838587486000051], [101.06354494200008, 12.835059742000055], [101.05790481300005, 12.828120593000051], [101.05751395400006, 12.825262589000033], [101.05258834800009, 12.822847962000026], [101.05197333500007, 12.819994760000043], [101.04943209000004, 12.817576797000072], [101.05001184200006, 12.815118239000071], [101.05409505600005, 12.81747082000004], [101.06107340200003, 12.817629495000062], [101.06452115400003, 12.819969166000021], [101.06766493200007, 12.81970099800003], [101.07626268000007, 12.812451882000062], [101.09415460400004, 12.804274004000035]]]}}, {"type": "Feature", "properties": {"district": "แกลง", "shapeName": "Klaeng", "branches": 4, "workingage": 80466, "factories_avg": 4, "estates": 0, "vehicle_avg": 4, "gold_avg": 0, "market_avg": 0, "own": 4}, "geometry": {"type": "MultiPolygon", "coordinates": [[[[101.56941476900005, 12.554811358000052], [101.57018746100005, 12.556819649000033], [101.56848419900007, 12.559223288000055], [101.56712132900009, 12.558966080000062], [101.56814610900005, 12.554804742000044], [101.56941476900005, 12.554811358000052]]], [[[101.70064485400007, 12.566221583000072], [101.70293906300009, 12.568682133000038], [101.70168127500006, 12.572687289000044], [101.69922848900006, 12.572015663000059], [101.69762511600004, 12.568956220000075], [101.69829752300006, 12.566068914000027], [101.70064485400007, 12.566221583000072]]], [[[101.69087992700008, 12.595346970000037], [101.69341211300008, 12.596919545000048], [101.69442941900007, 12.600065154000049], [101.69346193900009, 12.604305103000058], [101.68874357200008, 12.599337605000073], [101.68854150400006, 12.59661942300005], [101.69087992700008, 12.595346970000037]]], [[[101.69153679300007, 12.607720766000057], [101.69415782900006, 12.608941190000053], [101.69471733600005, 12.612411617000078], [101.68951535100007, 12.618970399000034], [101.68772622100005, 12.617847360000042], [101.68827579500004, 12.615035566000074], [101.68506210300006, 12.61102777900004], [101.68812645300005, 12.606802966000032], [101.69153679300007, 12.607720766000057]]], [[[101.80987500700007, 12.88486354500003], [101.80519023000005, 12.880769066000028], [101.79965908100007, 12.882447510000077], [101.79749455200005, 12.880333478000068], [101.78795773900003, 12.878286669000033], [101.77234413300005, 12.86880314900003], [101.75653368700006, 12.862062729000058], [101.75496921700005, 12.859172611000076], [101.75275541000008, 12.858823504000043], [101.75195379900003, 12.860410357000035], [101.74913336700007, 12.859421737000048], [101.74849704900004, 12.854003878000071], [101.74308363600005, 12.84749451600004], [101.74392915400006, 12.845087410000076], [101.74578012300009, 12.84432027400004], [101.74561833300004, 12.842478612000036], [101.74385577600003, 12.839812624000047], [101.74009766200004, 12.839877164000029], [101.73959147500005, 12.833754757000065], [101.73725798300006, 12.83206218600003], [101.73575083900005, 12.83288574900007], [101.73636329200008, 12.830523767000045], [101.73438835600007, 12.829953060000037], [101.73491625400004, 12.834224004000077], [101.73116003400008, 12.837409078000064], [101.73110671200004, 12.839855747000058], [101.72670849900004, 12.839097545000072], [101.72528408400007, 12.841232590000061], [101.72070449200004, 12.843071835000046], [101.72287275700006, 12.836993521000068], [101.71731516500006, 12.837153994000062], [101.71063723600008, 12.850902093000059], [101.70689634000007, 12.854435133000038], [101.70874503300007, 12.862296177000076], [101.70412995400005, 12.864532075000056], [101.70659440400004, 12.87006115500003], [101.70314384100004, 12.872321735000071], [101.70213408200004, 12.875979200000074], [101.69582688800006, 12.88178173800003], [101.69362162200008, 12.886773325000036], [101.69069919400005, 12.88908361700004], [101.69139181200006, 12.890725739000061], [101.68814111400008, 12.892737596000075], [101.68478249200007, 12.899297147000027], [101.67946837500006, 12.897827504000077], [101.67460931300008, 12.89948129100003], [101.66581627800008, 12.895616951000022], [101.66483422100004, 12.88332682400005], [101.66053485700007, 12.885738114000048], [101.65452008400007, 12.886647172000039], [101.65117532400006, 12.891075707000027], [101.64639042600004, 12.889897306000023], [101.64263097700007, 12.885065341000029], [101.64262032400006, 12.881830487000059], [101.64443122600005, 12.879752189000044], [101.64195622500006, 12.879368949000025], [101.63910730600008, 12.880009549000022], [101.63749799100003, 12.883300117000033], [101.63427556800008, 12.883212410000056], [101.62953217500007, 12.889641251000057], [101.62830209600008, 12.889214868000067], [101.62740897300006, 12.890731113000072], [101.62527179100005, 12.889580479000074], [101.62504227200009, 12.89168032300006], [101.62202779500006, 12.894600743000069], [101.62255689200003, 12.89609007000007], [101.61977658000006, 12.896122154000068], [101.62004718300005, 12.89879039300007], [101.61831899200007, 12.899570835000077], [101.61958213700007, 12.901594595000063], [101.61676117600007, 12.904335967000065], [101.61739011200007, 12.906538951000073], [101.61519979000008, 12.906076017000032], [101.61619292900008, 12.906725909000045], [101.61356226400005, 12.909796328000027], [101.61159364400004, 12.910197580000045], [101.61124698100008, 12.913856494000072], [101.60875821400003, 12.914461094000046], [101.60941309600008, 12.91626751900003], [101.60748856300006, 12.918023822000066], [101.60944473100005, 12.918392937000021], [101.60877240300005, 12.919791599000064], [101.61032734400004, 12.920521853000025], [101.60929747300008, 12.923294352000028], [101.60774223700008, 12.923364707000076], [101.61017158500005, 12.927686847000075], [101.60829344100006, 12.927831113000025], [101.60946114300003, 12.930279890000065], [101.60837212900009, 12.931373879000034], [101.61089120000008, 12.933114080000053], [101.61082047400004, 12.937586456000076], [101.61396345500003, 12.939530512000033], [101.61384577500007, 12.941230947000065], [101.61612736900008, 12.94347827100006], [101.61542992900007, 12.948165233000054], [101.61922023300008, 12.956459325000026], [101.61862774300005, 12.961540230000026], [101.61525815100003, 12.96387403700004], [101.61575679100008, 12.966544185000032], [101.61121361300007, 12.973422153000058], [101.61216250500007, 12.981476715000042], [101.58626647400007, 12.976732347000052], [101.57942790300007, 12.980066058000034], [101.56852229600008, 12.978845657000022], [101.56578367700007, 12.978361650000068], [101.56674084000008, 12.976208089000068], [101.56416602400009, 12.975614601000075], [101.56651027800007, 12.969980038000074], [101.56596209900005, 12.967444501000045], [101.57239624900006, 12.958936600000072], [101.57530706500006, 12.959378524000044], [101.57679772800009, 12.953092084000048], [101.57415705500006, 12.948937950000072], [101.57643609500008, 12.948162877000073], [101.57592445200004, 12.943057020000026], [101.57696432700004, 12.94248886500003], [101.57557065900005, 12.940337983000063], [101.58483584000004, 12.935931512000025], [101.58255840300006, 12.933394264000071], [101.58429924000006, 12.93186322200006], [101.58629437800005, 12.932590179000044], [101.58703491100005, 12.929139741000029], [101.58810642000009, 12.929062286000033], [101.58705335100007, 12.926617529000055], [101.58944545900005, 12.925629159000039], [101.58933782400004, 12.924096088000056], [101.58682566700008, 12.924644003000026], [101.58409930700009, 12.92310410400006], [101.58381517100008, 12.916291128000069], [101.58560775200004, 12.91537302100005], [101.58504240700006, 12.913882891000071], [101.58722646700005, 12.913500334000048], [101.58686969900003, 12.911069003000023], [101.58909758300007, 12.90739125500005], [101.58745791000007, 12.90687286800005], [101.58813732000004, 12.90343370000005], [101.59164564600007, 12.902426541000068], [101.59171432100004, 12.90065928200005], [101.58934298700007, 12.899326850000023], [101.59642936900008, 12.892221267000025], [101.59627567100006, 12.88459087900003], [101.59795882400005, 12.88468264900007], [101.59796340900004, 12.882063738000056], [101.59983387200003, 12.880410314000073], [101.60191946800006, 12.881238015000065], [101.60229509700008, 12.872765801000071], [101.59579122300005, 12.863619553000035], [101.58453719300007, 12.855981993000057], [101.58324453700004, 12.844074229000057], [101.58578617300009, 12.840029223000045], [101.58342610200003, 12.840066825000065], [101.57710128900004, 12.834274196000024], [101.57103240400005, 12.84071633700006], [101.56633507800007, 12.839715453000053], [101.56364084800003, 12.841095202000076], [101.55223815500005, 12.841966568000032], [101.55123220100006, 12.841792382000051], [101.55186400100007, 12.831123848000061], [101.54920958800005, 12.832542678000038], [101.54531970700003, 12.83231954100006], [101.52823499800007, 12.839545894000025], [101.52168502400008, 12.83913859100005], [101.52019991300006, 12.842681751000043], [101.51693758300007, 12.843928198000071], [101.51508220100004, 12.846578944000044], [101.50844311900005, 12.847162741000034], [101.50614350200004, 12.848644683000032], [101.50481734600004, 12.845584404000022], [101.50491543800007, 12.835358736000046], [101.50706188100008, 12.830169468000065], [101.50707878000009, 12.824039076000076], [101.50301340300007, 12.817651074000025], [101.50744677700004, 12.807892628000047], [101.50770071700003, 12.79930937000006], [101.50994557600006, 12.793822572000067], [101.51388668700008, 12.789305401000036], [101.52007126400008, 12.787789802000077], [101.52217740700007, 12.785954866000054], [101.52288942800004, 12.781307706000064], [101.52000774400005, 12.778262550000022], [101.52212474700008, 12.771115618000067], [101.52519989500007, 12.769803210000077], [101.52630735500009, 12.76669737900005], [101.52148228800007, 12.760517376000053], [101.52155677400003, 12.75704186300004], [101.52392009700009, 12.753231099000061], [101.52120352900005, 12.750730075000035], [101.52118504900005, 12.748863375000042], [101.52523333900007, 12.746494280000036], [101.52437624100008, 12.74270142100005], [101.52171892800004, 12.73982810800004], [101.52118344000007, 12.727194961000066], [101.53028340200007, 12.72029073300007], [101.52800004400007, 12.717223905000026], [101.52359778800007, 12.715575071000046], [101.51881191200005, 12.711282536000056], [101.51948963600006, 12.707855077000033], [101.51753362100004, 12.70227105500004], [101.51928862200003, 12.698595154000031], [101.51886864000005, 12.695190366000077], [101.51269996300005, 12.683486811000023], [101.51316766000008, 12.674486347000027], [101.51778093900003, 12.673630569000068], [101.51793163900004, 12.670774099000027], [101.52131246200008, 12.665160987000036], [101.51966698400008, 12.662242305000063], [101.51662902800007, 12.661343931000033], [101.51368323000008, 12.65495211800004], [101.51574186400006, 12.644676610000033], [101.51170888500008, 12.63136757500007], [101.53350387100005, 12.630460156000026], [101.55647993900004, 12.627326015000051], [101.55970751900009, 12.628500428000052], [101.56136887400004, 12.631196483000053], [101.56555931900004, 12.631880543000022], [101.56569779700004, 12.63393058500003], [101.56360320400006, 12.635723966000057], [101.56547606800007, 12.641865922000022], [101.56391557500007, 12.644835741000065], [101.56661078600007, 12.64794538800004], [101.57602008900005, 12.651766044000055], [101.59215210400004, 12.652183120000075], [101.59337545700004, 12.653532996000024], [101.60897322200003, 12.651902921000044], [101.62565241800007, 12.647578399000054], [101.63471935500007, 12.643293553000035], [101.64107395400003, 12.64382166200005], [101.64599800800005, 12.642382096000063], [101.64685176400008, 12.644575547000045], [101.64489330200007, 12.64454863700007], [101.64417307900004, 12.64680988200007], [101.65096733100006, 12.65162130400006], [101.65538694200006, 12.661306195000066], [101.66107593000004, 12.665958594000074], [101.66150983000006, 12.669032782000045], [101.65944503500003, 12.669913325000039], [101.66021950600003, 12.67175392300004], [101.66332418200005, 12.671687512000062], [101.66563663100004, 12.673842291000028], [101.67165211800005, 12.683859351000024], [101.68720870000004, 12.692355204000023], [101.68778873300005, 12.694213650000052], [101.70125982800005, 12.69572415700003], [101.70415437500009, 12.698250537000035], [101.70486920100007, 12.695931483000038], [101.70892805800008, 12.695481295000036], [101.71144229300006, 12.696215942000038], [101.71230352800006, 12.697335370000076], [101.71100144000008, 12.696261325000023], [101.70754200100004, 12.695912398000075], [101.70444301400005, 12.698151421000034], [101.71445609600005, 12.700721035000072], [101.72383405600004, 12.705427979000035], [101.74955067200005, 12.708134031000043], [101.76119055500004, 12.70598939000007], [101.76422669600004, 12.703255274000071], [101.76842303600006, 12.702852890000031], [101.77391822600003, 12.69712160000006], [101.78435838500008, 12.69319157600006], [101.79059480300003, 12.700801543000068], [101.78611352500008, 12.706611874000032], [101.78529854200008, 12.710599749000039], [101.79324502100008, 12.715619694000054], [101.79947721900004, 12.723146464000024], [101.79914642300008, 12.731386935000046], [101.79458439100006, 12.735539649000032], [101.79568077200008, 12.736983347000034], [101.80009152000008, 12.737412238000047], [101.80285800600006, 12.740223856000057], [101.80274390800008, 12.742476461000024], [101.79887906100004, 12.746758981000028], [101.79931753700004, 12.749800247000053], [101.80414927900006, 12.75208854400006], [101.80663037900007, 12.75630097800007], [101.81078493800004, 12.755218048000074], [101.81091026000007, 12.751010463000057], [101.81209086600006, 12.750145604000068], [101.81964900200006, 12.75415362800004], [101.81725734600008, 12.757153320000043], [101.81783639500009, 12.761656250000044], [101.82022802200004, 12.764913377000028], [101.81701196500006, 12.76683237800006], [101.81740282100009, 12.773702195000055], [101.81804682500007, 12.777565292000077], [101.82017406000006, 12.777738656000054], [101.82132570200008, 12.78081536700006], [101.81945875700006, 12.786251561000029], [101.82226008800006, 12.791066843000067], [101.81774984000003, 12.800982548000036], [101.81934745300003, 12.799766585000043], [101.82203493900005, 12.800737783000045], [101.82068838500004, 12.80299449100005], [101.82152453500004, 12.804527817000064], [101.82333246800005, 12.806750704000024], [101.82475056100009, 12.80634318500006], [101.82481424800005, 12.808892461000028], [101.82674183900008, 12.808837145000041], [101.82619966200008, 12.810473713000022], [101.82778706400006, 12.810487422000051], [101.82642682500006, 12.812217392000036], [101.82752820600007, 12.81233571200005], [101.82692007200006, 12.814273593000053], [101.82827209100009, 12.813912911000045], [101.82861207200006, 12.816608820000056], [101.82733818200006, 12.817045134000068], [101.82910048000008, 12.820771174000072], [101.82762510900005, 12.821677302000069], [101.83105407000005, 12.824835255000039], [101.82795568300008, 12.827522037000051], [101.82809204400007, 12.830069868000066], [101.82975510300008, 12.830130047000068], [101.82804407800006, 12.831632236000075], [101.82867456200006, 12.83601886300005], [101.82738318100007, 12.841143701000021], [101.82450109400008, 12.841865828000039], [101.82695239800006, 12.84471499600005], [101.82605560800005, 12.847235778000027], [101.82765389600007, 12.849398216000054], [101.82614736200009, 12.852590226000075], [101.82700785000009, 12.855199664000054], [101.82549300400007, 12.85607154400003], [101.82628373600005, 12.857978892000062], [101.82544850800008, 12.857469017000028], [101.82384410500003, 12.862194439000064], [101.82009769600006, 12.864705987000036], [101.81922606600006, 12.868378810000024], [101.81589478100005, 12.872437312000045], [101.81984617500007, 12.878749845000073], [101.81668102800006, 12.890838798000061], [101.81903380800009, 12.894952966000062], [101.81735954000004, 12.900882952000075], [101.81529460600007, 12.901032086000043], [101.81328517200006, 12.899224593000042], [101.81290042500007, 12.887036098000067], [101.80987500700007, 12.88486354500003]]]]}}, {"type": "Feature", "properties": {"district": "เขาชะเมา", "shapeName": "Khao Chamao", "branches": 1, "workingage": 15409, "factories_avg": 0, "estates": 0, "vehicle_avg": 0, "gold_avg": 0, "market_avg": 1, "own": 1}, "geometry": {"type": "Polygon", "coordinates": [[[101.57810664400006, 13.109208266000053], [101.58046867300004, 13.105805363000059], [101.58200264200008, 13.097559325000077], [101.58693903500006, 13.094555738000054], [101.59009162500007, 13.094673400000033], [101.59204000900007, 13.091847401000052], [101.58962349500007, 13.071935229000076], [101.58721896900005, 13.068211051000048], [101.58400347400004, 13.067977430000042], [101.58314452100007, 13.061845625000046], [101.58801366900008, 13.060882719000062], [101.58989779600006, 13.05663473800007], [101.59238010200005, 13.05519281100004], [101.59927406800006, 13.056647862000034], [101.59817124100005, 13.053999263000037], [101.60063456900008, 13.050919304000047], [101.60023728000004, 13.046945425000047], [101.60166996100008, 13.04472101500005], [101.59940392700008, 13.038565547000076], [101.60221450200004, 13.036893672000076], [101.60256648800004, 13.033928106000076], [101.60110146000005, 13.031741528000055], [101.60142895200005, 13.029114948000029], [101.59482678800003, 13.022733928000036], [101.59498013700005, 13.019265588000053], [101.59242907900006, 13.01735879100005], [101.59318601600006, 13.015970980000077], [101.59090519500006, 13.01031899700007], [101.58202485200007, 13.010269404000042], [101.58169481600004, 13.00488154900006], [101.58538903400006, 13.001598086000058], [101.58142722800005, 12.995291722000047], [101.57793993300004, 12.995131446000073], [101.57697185400008, 12.99284920100007], [101.57481298000005, 12.994556053000053], [101.57277169000008, 12.993341367000028], [101.57191257700003, 12.991441983000072], [101.57328541200008, 12.989630322000039], [101.56985790400006, 12.987544435000075], [101.57159706400006, 12.986382391000063], [101.57176404200004, 12.984121082000058], [101.56976565300005, 12.983573497000066], [101.57002081900004, 12.980486194000036], [101.56828498600004, 12.980739750000055], [101.56852229600008, 12.978845657000022], [101.57942790300007, 12.980066058000034], [101.58626647400007, 12.976732347000052], [101.61216250500007, 12.981476715000042], [101.61121361300007, 12.973422153000058], [101.61575679100008, 12.966544185000032], [101.61525815100003, 12.96387403700004], [101.61862774300005, 12.961540230000026], [101.61922023300008, 12.956459325000026], [101.61542992900007, 12.948165233000054], [101.61612736900008, 12.94347827100006], [101.61384577500007, 12.941230947000065], [101.61396345500003, 12.939530512000033], [101.61082047400004, 12.937586456000076], [101.61089120000008, 12.933114080000053], [101.60837212900009, 12.931373879000034], [101.60946114300003, 12.930279890000065], [101.60829344100006, 12.927831113000025], [101.61017158500005, 12.927686847000075], [101.60774223700008, 12.923364707000076], [101.60929747300008, 12.923294352000028], [101.61032734400004, 12.920521853000025], [101.60877240300005, 12.919791599000064], [101.60944473100005, 12.918392937000021], [101.60748856300006, 12.918023822000066], [101.60941309600008, 12.91626751900003], [101.60875821400003, 12.914461094000046], [101.61124698100008, 12.913856494000072], [101.61159364400004, 12.910197580000045], [101.61356226400005, 12.909796328000027], [101.61619292900008, 12.906725909000045], [101.61519979000008, 12.906076017000032], [101.61739011200007, 12.906538951000073], [101.61676117600007, 12.904335967000065], [101.61958213700007, 12.901594595000063], [101.61831899200007, 12.899570835000077], [101.62004718300005, 12.89879039300007], [101.61977658000006, 12.896122154000068], [101.62255689200003, 12.89609007000007], [101.62202779500006, 12.894600743000069], [101.62504227200009, 12.89168032300006], [101.62527179100005, 12.889580479000074], [101.62740897300006, 12.890731113000072], [101.62830209600008, 12.889214868000067], [101.62953217500007, 12.889641251000057], [101.63427556800008, 12.883212410000056], [101.63749799100003, 12.883300117000033], [101.63910730600008, 12.880009549000022], [101.64195622500006, 12.879368949000025], [101.64443122600005, 12.879752189000044], [101.64262032400006, 12.881830487000059], [101.64263097700007, 12.885065341000029], [101.64639042600004, 12.889897306000023], [101.65117532400006, 12.891075707000027], [101.65452008400007, 12.886647172000039], [101.66053485700007, 12.885738114000048], [101.66483422100004, 12.88332682400005], [101.66581627800008, 12.895616951000022], [101.67460931300008, 12.89948129100003], [101.67946837500006, 12.897827504000077], [101.68478249200007, 12.899297147000027], [101.68814111400008, 12.892737596000075], [101.69139181200006, 12.890725739000061], [101.69069919400005, 12.88908361700004], [101.69362162200008, 12.886773325000036], [101.69582688800006, 12.88178173800003], [101.70213408200004, 12.875979200000074], [101.70314384100004, 12.872321735000071], [101.70659440400004, 12.87006115500003], [101.70412995400005, 12.864532075000056], [101.70874503300007, 12.862296177000076], [101.70689634000007, 12.854435133000038], [101.71063723600008, 12.850902093000059], [101.71731516500006, 12.837153994000062], [101.72287275700006, 12.836993521000068], [101.72070449200004, 12.843071835000046], [101.72528408400007, 12.841232590000061], [101.72670849900004, 12.839097545000072], [101.73110671200004, 12.839855747000058], [101.73116003400008, 12.837409078000064], [101.73491625400004, 12.834224004000077], [101.73438835600007, 12.829953060000037], [101.73636329200008, 12.830523767000045], [101.73575083900005, 12.83288574900007], [101.73725798300006, 12.83206218600003], [101.73959147500005, 12.833754757000065], [101.74009766200004, 12.839877164000029], [101.74385577600003, 12.839812624000047], [101.74561833300004, 12.842478612000036], [101.74578012300009, 12.84432027400004], [101.74392915400006, 12.845087410000076], [101.74308363600005, 12.84749451600004], [101.74849704900004, 12.854003878000071], [101.74913336700007, 12.859421737000048], [101.75195379900003, 12.860410357000035], [101.75275541000008, 12.858823504000043], [101.75496921700005, 12.859172611000076], [101.75653368700006, 12.862062729000058], [101.77234413300005, 12.86880314900003], [101.78795773900003, 12.878286669000033], [101.79749455200005, 12.880333478000068], [101.79965908100007, 12.882447510000077], [101.80519023000005, 12.880769066000028], [101.80987500700007, 12.88486354500003], [101.80677022000003, 12.887375020000036], [101.80699596900007, 12.900680912000041], [101.80297977900005, 12.907326137000041], [101.80081750800008, 12.924144401000035], [101.79899670000003, 12.926915994000069], [101.79408875500008, 12.927092445000028], [101.79140838100005, 12.929529201000037], [101.79069847000005, 12.93253074300003], [101.79212336100005, 12.93739697500007], [101.79022312100005, 12.94415532100004], [101.78382807900005, 12.947035024000058], [101.78307345700006, 12.94955952600003], [101.77821766300008, 12.953715640000041], [101.77249398700008, 12.950976733000061], [101.76766823100007, 12.944487801000037], [101.75651632900008, 12.940280934000043], [101.75249089600004, 12.94538134100003], [101.75283836700004, 12.951008302000048], [101.75078706600004, 12.951337267000042], [101.74682246100008, 12.949071038000056], [101.74527903600006, 12.952965740000025], [101.74180098400007, 12.955126311000072], [101.74244721300005, 12.958599142000025], [101.73865207500006, 12.959468450000031], [101.74180342900007, 12.97754470600006], [101.73778746900007, 12.981762133000075], [101.74255985700006, 12.990705619000039], [101.74960356200006, 12.997250345000054], [101.75204795600007, 13.004956974000038], [101.75600294900005, 13.007263443000056], [101.75242286000008, 13.028583217000062], [101.760792, 13.035682652000048], [101.76043550400004, 13.04077984600002], [101.75812131100008, 13.04340572700005], [101.75927985300007, 13.047591142000044], [101.75682068500004, 13.049587454000061], [101.75049887300008, 13.048736062000046], [101.74680621100003, 13.045247277000044], [101.74470811500004, 13.038117627000076], [101.73787238600005, 13.033711630000028], [101.73210849000009, 13.033982798000068], [101.73070625700007, 13.032151776000035], [101.72494002700006, 13.030031806000068], [101.71674039400006, 13.034931131000064], [101.71385797200008, 13.047407106000037], [101.71035403200005, 13.049531112000068], [101.71096475500008, 13.056361570000035], [101.70767865800008, 13.05925047900007], [101.70677457200009, 13.064399760000072], [101.70291666600008, 13.07164961500007], [101.70681397300007, 13.077968462000058], [101.69857833100008, 13.080796406000047], [101.69312829700004, 13.092633817000035], [101.69247438300005, 13.097723379000058], [101.69513690200006, 13.09870317900004], [101.69577971900009, 13.103224472000022], [101.70023296000005, 13.106339449000075], [101.70018815100008, 13.108989905000044], [101.69140215100003, 13.109409916000061], [101.68745996900009, 13.111334911000029], [101.68551461800007, 13.11446498600003], [101.68481197900007, 13.123326918000032], [101.68836389700004, 13.126435282000045], [101.69026524100008, 13.131617107000068], [101.69542722800009, 13.134016690000067], [101.69649160400007, 13.137204820000022], [101.69577208800007, 13.14659670900005], [101.68019679300005, 13.148825569000053], [101.67355732900006, 13.155550840000046], [101.66868928100007, 13.153221595000048], [101.66571952100009, 13.155701941000075], [101.66101973000008, 13.154484207000053], [101.66053683200005, 13.157112678000033], [101.65936365600004, 13.158948053000074], [101.65746555100009, 13.158751988000063], [101.65668799400004, 13.161717544000055], [101.65248220200004, 13.160223145000032], [101.64826369700006, 13.163488681000047], [101.64362378300007, 13.162569243000064], [101.64038265200008, 13.160306179000031], [101.63536759800007, 13.159826765000048], [101.63402263000006, 13.153815619000056], [101.62295906300005, 13.144847514000048], [101.62234757400006, 13.140780547000077], [101.61810653700007, 13.141184158000044], [101.61594939700007, 13.137405905000037], [101.61271236100004, 13.135811715000045], [101.60655371900003, 13.136132618000033], [101.60437695500008, 13.134444529000064], [101.59878098800004, 13.13402665600006], [101.59520849500007, 13.135762241000066], [101.58241080200008, 13.128947115000074], [101.58482888600008, 13.122704352000028], [101.57949661200007, 13.116868105000037], [101.58015162000004, 13.113389312000038], [101.57810664400006, 13.109208266000053]]]}}, {"type": "Feature", "properties": {"district": "บ้านค่าย", "shapeName": "Ban Khai", "branches": 4, "workingage": 55901, "factories_avg": 20, "estates": 1, "vehicle_avg": 10, "gold_avg": 0, "market_avg": 2, "own": 4}, "geometry": {"type": "Polygon", "coordinates": [[[101.48163779900005, 12.867564241000025], [101.48354938500006, 12.874181484000076], [101.48553537400005, 12.874680001000058], [101.48953184600003, 12.880617140000027], [101.48925145100009, 12.884780641000077], [101.48761611000003, 12.883036987000025], [101.48300225300005, 12.882409607000056], [101.47321736600009, 12.885605629000054], [101.46807747300005, 12.88336488400006], [101.46440111000004, 12.884910379000075], [101.46145956300006, 12.889313397000024], [101.44852045000005, 12.89474857700003], [101.44791828800004, 12.902624213000024], [101.45217386300004, 12.905206798000052], [101.45695269500004, 12.912305486000037], [101.46007641700004, 12.912543106000044], [101.46055383000004, 12.914481693000027], [101.46393825800004, 12.915779903000043], [101.46572217800008, 12.914333442000043], [101.46716487700007, 12.914933908000023], [101.47685464500006, 12.923331161000021], [101.48366173500006, 12.924424068000064], [101.48368549100007, 12.927399318000028], [101.48632542600006, 12.929419357000029], [101.48634647100005, 12.931374167000058], [101.49247373900005, 12.936273905000064], [101.48799884100004, 12.938706311000033], [101.48018312800008, 12.93878651500006], [101.47708937700008, 12.942568143000074], [101.46911364900006, 12.943422755000029], [101.46785541200006, 12.946322604000045], [101.46689313100006, 12.944678054000065], [101.46385874600008, 12.944338027000072], [101.46055557000005, 12.946536387000037], [101.45777179400005, 12.943053692000035], [101.45133965400004, 12.94907106100004], [101.44860179800008, 12.948605197000063], [101.44252575200005, 12.95219645700007], [101.43779123300004, 12.95138982900005], [101.43507887600003, 12.95497595300003], [101.42917616100004, 12.958152140000038], [101.42532739200004, 12.966521211000043], [101.42151142200004, 12.966379446000076], [101.41593846100005, 12.96896208000004], [101.41484845200006, 12.96886057000006], [101.41520426200003, 12.96372357000007], [101.42064676400008, 12.957469418000073], [101.41755541000003, 12.954329156000028], [101.41674307200009, 12.950786286000039], [101.41257748300006, 12.948610163000069], [101.41157048900004, 12.94226989200007], [101.40666135400005, 12.940442585000028], [101.40761589500005, 12.936672530000067], [101.40513887000009, 12.938375620000045], [101.40599025400007, 12.93945702600007], [101.40446631100008, 12.941209670000035], [101.40035057200004, 12.94265787300003], [101.39574789600005, 12.93734977300005], [101.39464816200007, 12.932462089000069], [101.39107437300004, 12.930973453000036], [101.39084659500008, 12.929001840000069], [101.38776257200004, 12.928596803000062], [101.38423353000007, 12.932466076000026], [101.37957856900005, 12.931368643000042], [101.37787568200008, 12.933030298000062], [101.37979908700004, 12.938393546000043], [101.37651699000008, 12.940788800000064], [101.37117741000009, 12.94142578100002], [101.37257202600006, 12.945067461000065], [101.37135883500008, 12.948664094000037], [101.37432148100004, 12.951311017000023], [101.37386321400004, 12.953154961000052], [101.36862581500009, 12.95684460800004], [101.36688518900007, 12.960049863000052], [101.35876163200004, 12.963933798000028], [101.35418671000008, 12.954431357000033], [101.34824437200007, 12.952264800000023], [101.34541810600007, 12.948400628000059], [101.33776553400008, 12.948026305000042], [101.33029640900008, 12.942766636000044], [101.32851763900004, 12.932963954000058], [101.32106969700004, 12.933028626000066], [101.32109320100005, 12.926901401000066], [101.32333571300006, 12.925294058000077], [101.32329849600006, 12.923610714000063], [101.32282372200007, 12.918897834000063], [101.32031038100007, 12.91789178700003], [101.32136857500006, 12.914980417000038], [101.31991010500008, 12.91458239700006], [101.31950115300003, 12.912473299000055], [101.31299075800007, 12.916025409000042], [101.30704042600007, 12.917035284000065], [101.30668669500005, 12.918721438000034], [101.30112904900005, 12.920940663000067], [101.30035991900007, 12.919614250000052], [101.29773372200003, 12.920679101000076], [101.29734863400006, 12.918665284000042], [101.29307374300004, 12.918235383000024], [101.29171260400005, 12.914146303000052], [101.29636134800006, 12.909877356000038], [101.29718090100005, 12.897274264000032], [101.29329918600007, 12.895561367000028], [101.29146854200008, 12.89118400700005], [101.28954063800006, 12.892152622000026], [101.28765212100006, 12.888285074000066], [101.28954058200009, 12.886867422000023], [101.28588816000007, 12.881690604000028], [101.28150792000008, 12.880763427000034], [101.28190094500007, 12.87676745400006], [101.27728161100003, 12.876450903000034], [101.27240876400003, 12.878634575000035], [101.26423670000008, 12.866506337000033], [101.25355049700005, 12.867726681000022], [101.25130448500005, 12.870838610000021], [101.24737088100005, 12.871435139000027], [101.24668999800008, 12.870469171000025], [101.24057733700005, 12.87274158200006], [101.23836035700003, 12.87669018400004], [101.23234042100006, 12.878996187000041], [101.22395117900004, 12.86375711200003], [101.22026747900009, 12.857372486000031], [101.22535187300008, 12.85624802500007], [101.21049067800004, 12.829141163000031], [101.20849675600005, 12.821655744000054], [101.21078974000005, 12.820120556000063], [101.20850583600009, 12.816998369000032], [101.21005182500005, 12.816507839000053], [101.20849431000005, 12.813457523000068], [101.21669855100004, 12.812066661000074], [101.21843430100006, 12.810393248000025], [101.22262537900008, 12.810823882000022], [101.22199242400006, 12.806868483000073], [101.22524386600008, 12.802917125000022], [101.22221438300005, 12.796783288000029], [101.22519602800008, 12.795843664000074], [101.22594808100007, 12.793268214000022], [101.22319329200008, 12.77972357300007], [101.22805392200007, 12.779416441000023], [101.229685, 12.777298853000048], [101.22815046800008, 12.77489862300007], [101.23188379200008, 12.772158324000031], [101.23555327200006, 12.77163076200003], [101.23377688400006, 12.764351029000068], [101.23580331600004, 12.761641674000032], [101.23494274200004, 12.757988540000042], [101.23917692300006, 12.754157779000025], [101.23756228000008, 12.751239393000048], [101.24351618100007, 12.748333383000045], [101.24683331900007, 12.741965404000041], [101.25485861300007, 12.73429021000004], [101.26066159500004, 12.732060176000061], [101.26277280200009, 12.72836256100004], [101.26413690900006, 12.730211155000063], [101.26811877300008, 12.730893517000027], [101.26961169600008, 12.735051947000045], [101.27319311400004, 12.736022380000065], [101.27563257700007, 12.734573972000021], [101.27822306600007, 12.731017991000044], [101.28112004800005, 12.730420146000029], [101.27838145300007, 12.721316629000057], [101.28337673700008, 12.718131585000037], [101.29178690200007, 12.718809996000061], [101.29601996000008, 12.716373676000046], [101.29852891700006, 12.709249487000022], [101.30103478200004, 12.706025357000044], [101.30338569700007, 12.705915141000048], [101.30373507600007, 12.698117404000072], [101.30673696700006, 12.70083382100006], [101.30983974100008, 12.700998649000041], [101.31005780800007, 12.697848863000047], [101.31316357000009, 12.697214202000055], [101.31528532500005, 12.700366037000038], [101.31514749700005, 12.704026218000024], [101.31762290400007, 12.710937536000074], [101.32031915800007, 12.712785833000055], [101.31892392500004, 12.713555935000045], [101.32308456200008, 12.720648069000049], [101.32527639600005, 12.720462062000024], [101.32752463000008, 12.724209294000048], [101.32659304300006, 12.727688645000057], [101.32980678600006, 12.729526347000046], [101.33299062300006, 12.728819303000023], [101.33669765300004, 12.73014487000006], [101.33653205400009, 12.732255206000048], [101.33934607900005, 12.735920559000022], [101.34210892300007, 12.736039665000021], [101.34936990000006, 12.742083606000051], [101.35063428500007, 12.744247814000062], [101.34970712600006, 12.746818216000065], [101.35641398600006, 12.75104605200005], [101.35873215200007, 12.756335423000053], [101.36318714400005, 12.758891404000053], [101.36468838700006, 12.763284939000073], [101.37084908500003, 12.763392237000062], [101.37469645200008, 12.761634706000052], [101.37696106800007, 12.764652596000076], [101.38157257100005, 12.765466397000068], [101.38306151000006, 12.768862660000025], [101.39166341200007, 12.770050660000038], [101.40026150500006, 12.768414402000076], [101.41433050000006, 12.77482531100003], [101.41502774300005, 12.776663925000037], [101.41283209300008, 12.78124394300005], [101.41573553200004, 12.788584711000055], [101.41427359600004, 12.79314478300006], [101.41750067300006, 12.799127318000046], [101.41578035100008, 12.801409379000063], [101.42104974800009, 12.803774017000023], [101.42499092200006, 12.809084355000039], [101.44383729100008, 12.822918923000032], [101.44641476000004, 12.83010528400007], [101.45118029900004, 12.829565123000066], [101.46099827300009, 12.861749992000057], [101.46688776900004, 12.864625887000045], [101.46600439400004, 12.859162808000065], [101.47250882300006, 12.854702515000042], [101.47659415300006, 12.85375351600004], [101.47718048800004, 12.85996140800006], [101.48163779900005, 12.867564241000025]]]}}, {"type": "Feature", "properties": {"district": "วังจันทร์", "shapeName": "Wang Chan", "branches": 1, "workingage": 16874, "factories_avg": 0, "estates": 0, "vehicle_avg": 0, "gold_avg": 0, "market_avg": 3, "own": 1}, "geometry": {"type": "Polygon", "coordinates": [[[101.48163779900005, 12.867564241000025], [101.48562893800005, 12.864859943000056], [101.49586706900004, 12.867676553000024], [101.49775754200004, 12.869801901000073], [101.50168366000008, 12.869056151000052], [101.50335240900006, 12.86656888500005], [101.50306050000006, 12.862271067000052], [101.50649580100009, 12.857331012000031], [101.50614350200004, 12.848644683000032], [101.50844311900005, 12.847162741000034], [101.51508220100004, 12.846578944000044], [101.51693758300007, 12.843928198000071], [101.52019991300006, 12.842681751000043], [101.52168502400008, 12.83913859100005], [101.52823499800007, 12.839545894000025], [101.54531970700003, 12.83231954100006], [101.54920958800005, 12.832542678000038], [101.55186400100007, 12.831123848000061], [101.55123220100006, 12.841792382000051], [101.55223815500005, 12.841966568000032], [101.56364084800003, 12.841095202000076], [101.56633507800007, 12.839715453000053], [101.57103240400005, 12.84071633700006], [101.57710128900004, 12.834274196000024], [101.58342610200003, 12.840066825000065], [101.58578617300009, 12.840029223000045], [101.58324453700004, 12.844074229000057], [101.58453719300007, 12.855981993000057], [101.59579122300005, 12.863619553000035], [101.60229509700008, 12.872765801000071], [101.60191946800006, 12.881238015000065], [101.59983387200003, 12.880410314000073], [101.59796340900004, 12.882063738000056], [101.59795882400005, 12.88468264900007], [101.59627567100006, 12.88459087900003], [101.59642936900008, 12.892221267000025], [101.58934298700007, 12.899326850000023], [101.59171432100004, 12.90065928200005], [101.59164564600007, 12.902426541000068], [101.58813732000004, 12.90343370000005], [101.58745791000007, 12.90687286800005], [101.58909758300007, 12.90739125500005], [101.58686969900003, 12.911069003000023], [101.58722646700005, 12.913500334000048], [101.58504240700006, 12.913882891000071], [101.58560775200004, 12.91537302100005], [101.58381517100008, 12.916291128000069], [101.58409930700009, 12.92310410400006], [101.58682566700008, 12.924644003000026], [101.58933782400004, 12.924096088000056], [101.58944545900005, 12.925629159000039], [101.58705335100007, 12.926617529000055], [101.58810642000009, 12.929062286000033], [101.58703491100005, 12.929139741000029], [101.58629437800005, 12.932590179000044], [101.58429924000006, 12.93186322200006], [101.58255840300006, 12.933394264000071], [101.58483584000004, 12.935931512000025], [101.57557065900005, 12.940337983000063], [101.57696432700004, 12.94248886500003], [101.57592445200004, 12.943057020000026], [101.57643609500008, 12.948162877000073], [101.57415705500006, 12.948937950000072], [101.57679772800009, 12.953092084000048], [101.57530706500006, 12.959378524000044], [101.57239624900006, 12.958936600000072], [101.56596209900005, 12.967444501000045], [101.56651027800007, 12.969980038000074], [101.56416602400009, 12.975614601000075], [101.56674084000008, 12.976208089000068], [101.56578367700007, 12.978361650000068], [101.56852229600008, 12.978845657000022], [101.56828498600004, 12.980739750000055], [101.57002081900004, 12.980486194000036], [101.56976565300005, 12.983573497000066], [101.57176404200004, 12.984121082000058], [101.57159706400006, 12.986382391000063], [101.56985790400006, 12.987544435000075], [101.57328541200008, 12.989630322000039], [101.57191257700003, 12.991441983000072], [101.57277169000008, 12.993341367000028], [101.57481298000005, 12.994556053000053], [101.57697185400008, 12.99284920100007], [101.57793993300004, 12.995131446000073], [101.58142722800005, 12.995291722000047], [101.58538903400006, 13.001598086000058], [101.58169481600004, 13.00488154900006], [101.58202485200007, 13.010269404000042], [101.59090519500006, 13.01031899700007], [101.59318601600006, 13.015970980000077], [101.59242907900006, 13.01735879100005], [101.59498013700005, 13.019265588000053], [101.59482678800003, 13.022733928000036], [101.60142895200005, 13.029114948000029], [101.60110146000005, 13.031741528000055], [101.60256648800004, 13.033928106000076], [101.60221450200004, 13.036893672000076], [101.59940392700008, 13.038565547000076], [101.60166996100008, 13.04472101500005], [101.60023728000004, 13.046945425000047], [101.60063456900008, 13.050919304000047], [101.59817124100005, 13.053999263000037], [101.59927406800006, 13.056647862000034], [101.59238010200005, 13.05519281100004], [101.58989779600006, 13.05663473800007], [101.58801366900008, 13.060882719000062], [101.58314452100007, 13.061845625000046], [101.58400347400004, 13.067977430000042], [101.58721896900005, 13.068211051000048], [101.58962349500007, 13.071935229000076], [101.59204000900007, 13.091847401000052], [101.59009162500007, 13.094673400000033], [101.58693903500006, 13.094555738000054], [101.58200264200008, 13.097559325000077], [101.58046867300004, 13.105805363000059], [101.57810664400006, 13.109208266000053], [101.57608963800004, 13.101177642000039], [101.57751533000004, 13.095711019000078], [101.57417620700005, 13.093164072000036], [101.57354239100005, 13.08668093600005], [101.56794194500009, 13.088164022000058], [101.56542296600009, 13.082710097000074], [101.55939829800008, 13.076970060000065], [101.54884445900007, 13.07187748900003], [101.54680297500005, 13.072518], [101.54442397500009, 13.070972464000022], [101.54393133500008, 13.072229072000027], [101.53617041300004, 13.071091208000041], [101.53567506100006, 13.07245471300007], [101.53019602800003, 13.071211783000024], [101.52837913100007, 13.07401595600004], [101.52230967600008, 13.077008602000035], [101.52010552300004, 13.075166109000065], [101.52099811800008, 13.071737624000036], [101.51669750800005, 13.068558582000037], [101.51417054000007, 13.069044832000031], [101.51246834200003, 13.066850414000044], [101.51373289000009, 13.06102192000003], [101.51559821100005, 13.060003018000032], [101.51448684500008, 13.059159751000038], [101.48495456300009, 13.058367615000066], [101.48635089400005, 13.052544068000032], [101.48885026600004, 13.050973996000039], [101.48293659200004, 13.050729303000026], [101.47919434700003, 13.048436555000023], [101.47769680200008, 13.049536722000028], [101.47701164700004, 13.047918246000052], [101.47204366100004, 13.049214549000055], [101.46892001400005, 13.051813245000062], [101.46431216700006, 13.042367391000028], [101.47268530400004, 13.032363665000048], [101.47311968200006, 13.028720834000069], [101.47049026400003, 13.026118819000033], [101.46641339800004, 13.029704308000078], [101.46401469000006, 13.029364788000066], [101.46263201900007, 13.032363141000076], [101.45646805400008, 13.036479669000073], [101.45489475500005, 13.03577169500005], [101.44397112600006, 13.049843886000076], [101.43588897600006, 13.051595837000036], [101.43311032900004, 13.046969919000048], [101.42672377900004, 13.045259848000057], [101.42239206100004, 13.039584748000038], [101.41978790600007, 13.038875377000068], [101.41944686500005, 13.032903894000071], [101.41674320000004, 13.027189097000075], [101.40774812400008, 13.02334552900004], [101.40445588200004, 13.024372076000077], [101.40161077200008, 13.028209425000057], [101.39977346700005, 13.025545856000065], [101.39409159900003, 13.024810699000057], [101.39864526200006, 13.021460250000075], [101.40416989500005, 13.011280939000073], [101.40565958400003, 13.007177134000074], [101.40554825800007, 13.001042010000049], [101.40765053200005, 12.997170566000023], [101.40649863700008, 12.995790262000071], [101.40763363400004, 12.991696782000076], [101.41618500300007, 12.985945600000036], [101.41451089200007, 12.984378244000027], [101.41346216500006, 12.97932275100004], [101.41726780400006, 12.972726984000076], [101.41593846100005, 12.96896208000004], [101.42151142200004, 12.966379446000076], [101.42532739200004, 12.966521211000043], [101.42917616100004, 12.958152140000038], [101.43507887600003, 12.95497595300003], [101.43779123300004, 12.95138982900005], [101.44252575200005, 12.95219645700007], [101.44860179800008, 12.948605197000063], [101.45133965400004, 12.94907106100004], [101.45777179400005, 12.943053692000035], [101.46055557000005, 12.946536387000037], [101.46385874600008, 12.944338027000072], [101.46689313100006, 12.944678054000065], [101.46785541200006, 12.946322604000045], [101.46911364900006, 12.943422755000029], [101.47708937700008, 12.942568143000074], [101.48018312800008, 12.93878651500006], [101.48799884100004, 12.938706311000033], [101.49247373900005, 12.936273905000064], [101.48634647100005, 12.931374167000058], [101.48632542600006, 12.929419357000029], [101.48368549100007, 12.927399318000028], [101.48366173500006, 12.924424068000064], [101.47685464500006, 12.923331161000021], [101.46716487700007, 12.914933908000023], [101.46572217800008, 12.914333442000043], [101.46393825800004, 12.915779903000043], [101.46055383000004, 12.914481693000027], [101.46007641700004, 12.912543106000044], [101.45695269500004, 12.912305486000037], [101.45217386300004, 12.905206798000052], [101.44791828800004, 12.902624213000024], [101.44852045000005, 12.89474857700003], [101.46145956300006, 12.889313397000024], [101.46440111000004, 12.884910379000075], [101.46807747300005, 12.88336488400006], [101.47321736600009, 12.885605629000054], [101.48300225300005, 12.882409607000056], [101.48761611000003, 12.883036987000025], [101.48925145100009, 12.884780641000077], [101.48953184600003, 12.880617140000027], [101.48553537400005, 12.874680001000058], [101.48354938500006, 12.874181484000076], [101.48163779900005, 12.867564241000025]]]}}]}